[Satellite]
VERSION=1.1
NAME=DOVE-2
NICKNAME=DOVE-2
TLE1=1 39132U 13015C   15055.46033676  .00003861  00000-0  28860-3 0  9994
TLE2=2 39132  64.8758  68.0294 0039067 258.7069 100.9660 15.03692919101479
